{
  "type": "FeatureCollection",
  "features": [
    {
      "type": "Feature",
      "properties": {
        "norad_id": 37238,
        "name": "INTELSAT 17 (IS-17)",
        "group": "intelsat",
        "lat": 0.024100323229344047,
        "lon": 80.32723795251309,
        "alt_km": 35796.31587190847,
        "timestamp": "2025-12-21T18:54:58.161055+00:00",
        "meta_object_name": "INTELSAT 17 (IS-17)",
        "meta_object_id": "2010-065B",
        "meta_epoch": "2025-12-21T10:05:17.244672",
        "meta_mean_motion": 1.0027158,
        "meta_eccentricity": 0.00028326,
        "meta_inclination": 0.0322,
        "meta_ra_of_asc_node": 71.525,
        "meta_arg_of_pericenter": 220.7239,
        "meta_mean_anomaly": 15.2864,
        "meta_ephemeris_type": 0,
        "meta_classification_type": "U",
        "meta_norad_cat_id": 37238,
        "meta_element_set_no": 999,
        "meta_rev_at_epoch": 5146,
        "meta_bstar": 0,
        "meta_mean_motion_dot": 0,
        "meta_mean_motion_ddot": 0,
        "tle_line1": "1 37238U 10065B   25355.42033848  .00000000  00000+0  00000+0 0  9995",
        "tle_line2": "2 37238   0.0322  71.5250 0002832 220.7239  15.2864  1.00271580 51468"
      },
      "geometry": {
        "type": "Point",
        "coordinates": [
          80.32723795251309,
          0.024100323229344047
        ]
      }
    },
    {
      "type": "Feature",
      "properties": {
        "norad_id": 37392,
        "name": "INTELSAT 28 (IS-28)",
        "group": "intelsat",
        "lat": -1.3256788262448862,
        "lon": -17.329093616234157,
        "alt_km": 35781.20230208188,
        "timestamp": "2025-12-21T18:54:58.161067+00:00",
        "meta_object_name": "INTELSAT 28 (IS-28)",
        "meta_object_id": "2011-016A",
        "meta_epoch": "2025-12-21T11:20:05.957088",
        "meta_mean_motion": 1.00269544,
        "meta_eccentricity": 0.00037027,
        "meta_inclination": 1.3458,
        "meta_ra_of_asc_node": 84.9616,
        "meta_arg_of_pericenter": 189.051,
        "meta_mean_anomaly": 314.6013,
        "meta_ephemeris_type": 0,
        "meta_classification_type": "U",
        "meta_norad_cat_id": 37392,
        "meta_element_set_no": 999,
        "meta_rev_at_epoch": 5150,
        "meta_bstar": 0,
        "meta_mean_motion_dot": -2.03e-06,
        "meta_mean_motion_ddot": 0,
        "tle_line1": "1 37392U 11016A   25355.47229117 -.00000203  00000+0  00000+0 0  9990",
        "tle_line2": "2 37392   1.3458  84.9616 0003702 189.0510 314.6013  1.00269544 51507"
      },
      "geometry": {
        "type": "Point",
        "coordinates": [
          -17.329093616234157,
          -1.3256788262448862
        ]
      }
    },
    {
      "type": "Feature",
      "properties": {
        "norad_id": 37834,
        "name": "INTELSAT 18 (IS-18)",
        "group": "intelsat",
        "lat": -0.029582722159883647,
        "lon": -165.68006057475554,
        "alt_km": 35786.62076620561,
        "timestamp": "2025-12-21T18:54:58.161079+00:00",
        "meta_object_name": "INTELSAT 18 (IS-18)",
        "meta_object_id": "2011-056A",
        "meta_epoch": "2025-12-21T08:06:38.568096",
        "meta_mean_motion": 1.00272475,
        "meta_eccentricity": 0.00017157,
        "meta_inclination": 0.0314,
        "meta_ra_of_asc_node": 281.2642,
        "meta_arg_of_pericenter": 9.2626,
        "meta_mean_anomaly": 101.2942,
        "meta_ephemeris_type": 0,
        "meta_classification_type": "U",
        "meta_norad_cat_id": 37834,
        "meta_element_set_no": 999,
        "meta_rev_at_epoch": 5202,
        "meta_bstar": 0,
        "meta_mean_motion_dot": 7.6e-07,
        "meta_mean_motion_ddot": 0,
        "tle_line1": "1 37834U 11056A   25355.33794639  .00000076  00000+0  00000+0 0  9993",
        "tle_line2": "2 37834   0.0314 281.2642 0001715   9.2626 101.2942  1.00272475 52025"
      },
      "geometry": {
        "type": "Point",
        "coordinates": [
          -165.68006057475554,
          -0.029582722159883647
        ]
      }
    },
    {
      "type": "Feature",
      "properties": {
        "norad_id": 38098,
        "name": "INTELSAT 22 (IS-22)",
        "group": "intelsat",
        "lat": 0.03202832058551983,
        "lon": 86.42956226483402,
        "alt_km": 35793.89392047078,
        "timestamp": "2025-12-21T18:54:58.161091+00:00",
        "meta_object_name": "INTELSAT 22 (IS-22)",
        "meta_object_id": "2012-011A",
        "meta_epoch": "2025-12-21T08:24:19.414944",
        "meta_mean_motion": 1.00270608,
        "meta_eccentricity": 0.0001803,
        "meta_inclination": 0.016,
        "meta_ra_of_asc_node": 43.4042,
        "meta_arg_of_pericenter": 234.4784,
        "meta_mean_anomaly": 10.4596,
        "meta_ephemeris_type": 0,
        "meta_classification_type": "U",
        "meta_norad_cat_id": 38098,
        "meta_element_set_no": 999,
        "meta_rev_at_epoch": 540,
        "meta_bstar": 0,
        "meta_mean_motion_dot": -3.6e-07,
        "meta_mean_motion_ddot": 0,
        "tle_line1": "1 38098U 12011A   25355.35022471 -.00000036  00000+0  00000+0 0  9995",
        "tle_line2": "2 38098   0.0160  43.4042 0001803 234.4784  10.4596  1.00270608  5406"
      },
      "geometry": {
        "type": "Point",
        "coordinates": [
          86.42956226483402,
          0.03202832058551983
        ]
      }
    },
    {
      "type": "Feature",
      "properties": {
        "norad_id": 38356,
        "name": "INTELSAT 19 (IS-19)",
        "group": "intelsat",
        "lat": 0.008301834067049586,
        "lon": -179.6966198166407,
        "alt_km": 35785.630009850734,
        "timestamp": "2025-12-21T18:54:58.161102+00:00",
        "meta_object_name": "INTELSAT 19 (IS-19)",
        "meta_object_id": "2012-030A",
        "meta_epoch": "2025-12-21T13:33:38.680992",
        "meta_mean_motion": 1.00271321,
        "meta_eccentricity": 0.00027559,
        "meta_inclination": 0.0111,
        "meta_ra_of_asc_node": 21.6786,
        "meta_arg_of_pericenter": 245.7502,
        "meta_mean_anomaly": 192.3636,
        "meta_ephemeris_type": 0,
        "meta_classification_type": "U",
        "meta_norad_cat_id": 38356,
        "meta_element_set_no": 999,
        "meta_rev_at_epoch": 4867,
        "meta_bstar": 0,
        "meta_mean_motion_dot": -3.4e-07,
        "meta_mean_motion_ddot": 0,
        "tle_line1": "1 38356U 12030A   25355.56503103 -.00000034  00000+0  00000+0 0  9990",
        "tle_line2": "2 38356   0.0111  21.6786 0002755 245.7502 192.3636  1.00271321 48676"
      },
      "geometry": {
        "type": "Point",
        "coordinates": [
          -179.6966198166407,
          0.008301834067049586
        ]
      }
    },
    {
      "type": "Feature",
      "properties": {
        "norad_id": 38740,
        "name": "INTELSAT 20 (IS-20)",
        "group": "intelsat",
        "lat": 0.02099160212943247,
        "lon": 82.78440435002571,
        "alt_km": 35788.66978600109,
        "timestamp": "2025-12-21T18:54:58.161114+00:00",
        "meta_object_name": "INTELSAT 20 (IS-20)",
        "meta_object_id": "2012-043A",
        "meta_epoch": "2025-12-21T11:48:40.719744",
        "meta_mean_motion": 1.00271315,
        "meta_eccentricity": 0.00034731,
        "meta_inclination": 0.0082,
        "meta_ra_of_asc_node": 53.6994,
        "meta_arg_of_pericenter": 128.8194,
        "meta_mean_anomaly": 153.4487,
        "meta_ephemeris_type": 0,
        "meta_classification_type": "U",
        "meta_norad_cat_id": 38740,
        "meta_element_set_no": 999,
        "meta_rev_at_epoch": 4896,
        "meta_bstar": 0,
        "meta_mean_motion_dot": -2e-08,
        "meta_mean_motion_ddot": 0,
        "tle_line1": "1 38740U 12043A   25355.49213796 -.00000002  00000+0  00000+0 0  9994",
        "tle_line2": "2 38740   0.0082  53.6994 0003473 128.8194 153.4487  1.00271315 48969"
      },
      "geometry": {
        "type": "Point",
        "coordinates": [
          82.78440435002571,
          0.02099160212943247
        ]
      }
    },
    {
      "type": "Feature",
      "properties": {
        "norad_id": 38749,
        "name": "INTELSAT 21 (IS-21)",
        "group": "intelsat",
        "lat": -0.0042255342964152825,
        "lon": -43.64698336119742,
        "alt_km": 35782.361122999704,
        "timestamp": "2025-12-21T18:54:58.161125+00:00",
        "meta_object_name": "INTELSAT 21 (IS-21)",
        "meta_object_id": "2012-045A",
        "meta_epoch": "2025-12-21T11:12:36.673632",
        "meta_mean_motion": 1.0027192,
        "meta_eccentricity": 0.00015247,
        "meta_inclination": 0.0228,
        "meta_ra_of_asc_node": 292.4325,
        "meta_arg_of_pericenter": 329.0019,
        "meta_mean_anomaly": 299.0063,
        "meta_ephemeris_type": 0,
        "meta_classification_type": "U",
        "meta_norad_cat_id": 38749,
        "meta_element_set_no": 999,
        "meta_rev_at_epoch": 4874,
        "meta_bstar": 0,
        "meta_mean_motion_dot": -2.62e-06,
        "meta_mean_motion_ddot": 0,
        "tle_line1": "1 38749U 12045A   25355.46709113 -.00000262  00000+0  00000+0 0  9993",
        "tle_line2": "2 38749   0.0228 292.4325 0001524 329.0019 299.0063  1.00271920 48742"
      },
      "geometry": {
        "type": "Point",
        "coordinates": [
          -43.64698336119742,
          -0.0042255342964152825
        ]
      }
    }
  ]
}